[{"OBJECT_NAME":"STARLINK-31563","OBJECT_ID":"2024-045N","EPOCH":"2026-03-09T10:15:36.072576","MEAN_MOTION":15.27602366,"ECCENTRICITY":0.00018301,"INCLINATION":43.004,"RA_OF_ASC_NODE":93.8225,"ARG_OF_PERICENTER":260.4348,"MEAN_ANOMALY":99.6297,"EPHEMERIS_TYPE":0,"CLASSIFICATION_TYPE":"U","NORAD_CAT_ID":59190,"ELEMENT_SET_NO":999,"REV_AT_EPOCH":11312,"BSTAR":-0.00020698297,"MEAN_MOTION_DOT":-5.958e-5,"MEAN_MOTION_DDOT":0},{"OBJECT_NAME":"DMSP 5D-2 F13 DEB","OBJECT_ID":"1995-015HL","EPOCH":"2026-02-09T02:06:19.247328","MEAN_MOTION":15.12822218,"ECCENTRICITY":0.00117732,"INCLINATION":98.8603,"RA_OF_ASC_NODE":96.8879,"ARG_OF_PERICENTER":223.037,"MEAN_ANOMALY":136.9936,"EPHEMERIS_TYPE":0,"CLASSIFICATION_TYPE":"U","NORAD_CAT_ID":42294,"ELEMENT_SET_NO":999,"REV_AT_EPOCH":55633,"BSTAR":0.010466292,"MEAN_MOTION_DOT":0.00188804,"MEAN_MOTION_DDOT":0}]
